#dP2022  3 10  0  0  0.00000000      96 __u+U ITR00 EXT  IAC
## 2200 345600.00000000   900.00000000 59648 0.0000000000000
+  117   C06C07C08C09C10C11C12C13C14C16C19C20C21C22C23C24C25
+        C26C27C28C29C30C32C33C34C35C36C37C38C39C40C41C42C43
+        C44C45C46E01E02E03E04E05E07E08E09E10E11E12E13E14E15
+        E18E19E21E25E26E27E30E31E33E34E36G01G02G03G04G05G06
+        G07G08G09G10G11G12G13G14G15G16G17G18G19G20G21G22G23
+        G24G25G26G27G28G29G30G31G32J01J02J03R01R02R03R04R05
+        R07R08R09R11R12R13R14R15R17R18R19R20R21R22R24  0  0
++         9  8 10  8  9 13 10  9  8 11  8  9  9  8  9  9 10
++         7 10  9  8  7  8  9  9  9  8  7  9  9 10  8  9  8
++        10  8  9  9  7  8  8  8  8  8  7  8  8  8  9  8  8
++         7  7  8  8  8  7  8  9  7  9  8  8  8  8  7  9  8
++         8  8  7  8  7  8  8  7  7  7 10  9  8  8  8  8  7
++         6  6  7  7  7  8  8  7  8 15  7  9  8  8  8  9  9
++         9  7 10  9  8  8  8  8  9  7  8  9  9  8  7  0  0
%c M  cc GPS ccc cccc cccc cccc cccc ccccc ccccc ccccc ccccc
%c cc cc ccc ccc cccc cccc cccc cccc ccccc ccccc ccccc ccccc
%f  0.0000000  0.000000000  0.00000000000  0.000000000000000
%f  0.0000000  0.000000000  0.00000000000  0.000000000000000
%i    0    0    0    0      0      0      0      0         0
%i    0    0    0    0      0      0      0      0         0
/* IAC                                ULTRA-RAPID PREDICTION
/* S/V CLOCKS ARE ALIGNED TO GNSS TIME                      
/* G:C1WC2W R:C1PC2P E:C1XC5X C:C2IC6I J:C1CC2S             
/* PCV:IGS14_2196 OL/AL:FES2004  NONE     YN ORB:CoN CLK:CoN
*  2022 03 10  3 45  0.00000000
PC06 -18710.319564  34894.884182  14184.093248   -418.229863
PC07  -3982.220076  36096.154566  21532.448694    154.388534
PC08  -9528.079356  19330.051142 -36233.454317    186.461905
PC09  -9837.950278  33370.847625  23816.338541   -590.839022
PC10   2496.452863  39209.081251  16165.657126    139.071898
PC11  19882.955194  -2812.897586 -19301.774820   -161.096467
PC12   7806.417926  13835.238947 -22906.585920    682.649463
PC13    208.822571  22589.586755 -35459.672736    -94.258056
PC14  17508.265459   7399.507928  20476.368545    451.678873
PC16 -19488.002485  34856.456386  13266.366912     98.934606
PC19 -15401.934114   3710.471687 -22941.920425    887.799144
PC20 -16864.261119 -15515.037029 -15886.918510   -842.030885
PC21   8247.278312  26645.968831  -1157.153683   -922.553517
PC22  -4995.797888  21577.126030 -16986.813688   -960.027509
PC23  12365.417662 -13112.096458 -21306.959719   -946.164177
PC24  24216.751713  11034.097260   8336.012822   -945.876452
PC25  25857.658597  -2767.397798 -10103.508864   -768.151413
PC26   9814.869313  16479.642998  20242.441567    768.306880
PC27     80.660493 -20072.363735  19376.330415    689.488789
PC28  15505.833132 -22601.972644   5251.034776     41.670358
PC29 -21635.839147  12527.879984  12383.449302    525.530545
PC30 -15331.848703  -6000.110968  22522.466860    494.856234
PC32  -8381.014040 -26583.597676   1257.805884   -970.329762
PC33  15465.638812  -3690.225857  22944.011965   -964.140826
PC34  16011.508026   5067.670977 -22300.759450   -451.815229
PC35 -15206.261737  22945.010903  -4465.760456    175.013501
PC36 -26123.252946   1814.716552   9672.198432   -935.516063
PC37  -8257.622510 -16790.433965 -20702.530957   -944.822000
PC38 -17166.371663  19411.234929 -33251.369904    216.859969
PC39 -22597.706723  34974.872942   6002.215656     34.851748
PC40  -7010.271447  33093.206929  25246.315640    250.960928
PC41   5313.752184 -21270.196406  17320.868086   -952.326630
PC42  16767.356395  16373.866038  15210.789714   -936.614519
PC43  21751.177384 -11848.823926 -12889.998004   -937.038466
PC44    585.340202  20212.125625 -19225.345961    589.822631
PC45 -12109.497277  13103.413474  21458.014951    700.676937
PC46 -25002.981009 -10226.344972  -7089.850666   -209.475172
PE01  -4143.144259 -21450.319975 -19982.663245   -593.835000
PE02   4281.337881  21483.996978  19888.808257    285.249199
PE03  -3190.437863  29278.390883   3018.019904   -535.773388
PE04  -9808.305072 -20536.359529 -18919.774583   -981.226498
PE05 -14569.720664  20966.816059 -14971.306312   -201.827055
PE07  17317.165934   -570.363645  24006.067895   -646.800254
PE08  10000.134820  20159.185479  19237.448917   -492.544231
PE09 -17199.613529    950.662184 -24067.479958   5333.824707
PE10 -22956.016906  -4091.192336  18228.258461   -499.627176
PE11 -27734.033664   3322.141424   9758.884665   4268.835843
PE12 -14794.696643 -10732.793351  23279.668437   4721.214277
PE13  27563.884281  -2954.538757 -10388.127235    427.160379
PE14  14393.281157  16862.612289 -23601.054834  -1772.771803
PE15  14684.993181  10691.393317 -23364.390093    758.714691
PE18 -13989.188265  -6013.573958  18371.921262  -1702.252520
PE19   4914.188058 -29184.521308   -666.813067  -1059.128562
PE21  13498.375673 -10197.924262 -24295.049005   -721.638925
PE25 -13728.781246   9966.559398  24256.547886   -566.261131
PE26  23589.470829 -15163.854276   9491.182346   -894.527735
PE27  24437.384115   7544.500264 -14891.794849   -249.670258
PE30  20223.164653  21187.100951   4189.786629   -336.134364
PE31 -20914.808210 -20708.313804  -3197.186794   -493.304854
PE33   6815.752197 -17984.031929  22513.239741   -458.715195
PE34  -6544.038993  17967.949874 -22595.758248   -505.932680
PE36 -24164.194384  14762.895711  -8589.649802   -343.127405
PG01   4609.536829  14108.998314 -22322.803803    412.636713
PG02  17116.186200 -15297.741008  14134.846795   -652.056158
PG03  11310.643975  22177.525586  -9516.142881   -156.457567
PG04   1296.203822  23097.828799  12979.700060   -184.687458
PG05   2579.252196 -17227.483649  19845.231493    -74.133799
PG06  26039.798641  -5447.606555    -60.119808    226.271776
PG07  20375.905793   7432.188145  16040.567590    315.169043
PG08  -5378.913870  25620.369259  -3190.170250    -59.242900
PG09  10066.985755  14714.744542  19608.400688   -350.560313
PG10 -20636.358442  -7473.989773 -15018.731043   -342.377381
PG11  19042.799226 -12576.903239  13577.698706    -66.367996
PG12  -7101.146161 -22692.298070 -12235.164210   -182.568152
PG13  13202.609353 -22717.268158   3064.262216    274.316568
PG14  20570.350934   8537.725895 -14532.265072    -92.308502
PG15   1775.747377 -26061.815864  -4142.926160    -77.971981
PG16  -7909.366135  13540.279777  21091.406289   -478.856367
PG17  15738.114213  -1711.137950 -20906.289512    585.228424
PG18 -20071.161092  -7180.557290  15904.662027    223.333663
PG19  17362.629095  -9008.141486 -18139.237288    129.001866
PG20  10901.130530 -11247.778994  21442.345807    516.367515
PG21  -6503.693452  16046.777704 -19279.965462    159.181138
PG22 -16989.870101  12618.826926 -15529.793175    225.169687
PG23 -20571.302295 -15927.495324  -5605.759368     -5.499102
PG24   -646.745020 -16209.672434 -21281.247607    269.357724
PG25 -17374.159650 -20270.984916  -1222.887888    296.205312
PG26 -16998.947036   3822.040398  20040.453419    189.556431
PG27 -12427.867692  21918.327311   7527.606192    148.694237
PG28  17410.721711    981.027834 -19448.126169    383.836339
PG29  -6944.331195 -16926.823755  19185.581082   -489.520065
PG30  25163.461574   1669.967897   8794.628607   -517.850971
PG31 -25908.033005   6516.622761   2205.952937   -168.234454
PG32 -16446.779602   5941.183586 -19798.553477    -81.853585
PJ01 -21531.316199  27396.556873 -19202.844278    207.127447
PJ02 -26769.224357  20887.198408  29963.997838     -1.863248
PJ03 -34824.636004  23840.531067   3943.206827     -0.902793
PR01  11435.270544   2230.694992  22698.430605      7.209732
PR02   5746.493012 -17957.821868  17259.323118    512.036245
PR03  -2869.124516 -25327.407299   1623.163983     52.836650
PR04  -9541.793744 -18487.130250 -14735.513128    131.210975
PR05 -11028.823016  -1516.407298 -22937.359211     89.092293
PR07   3252.408880  25262.825286   -744.792289     32.484070
PR08   9753.178793  18282.707453  14917.888793    -63.945136
PR09 -11601.711128   7035.169925  21597.544474     43.535964
PR11  20618.018838  12257.277985   8700.355089     43.921498
PR12  23185.525876   4087.075899  -9771.160778     17.396464
PR13  12674.980257  -6101.828785 -21298.541752    -19.250409
PR14  -6512.987290 -13322.638719 -20746.199141     75.228774
PR15 -20874.757543 -12335.642174  -7913.099121     97.650659
PR17   6366.070778 -15856.917038  18936.309950    508.254099
PR18  -8761.900872  -6334.783788  23114.870687    109.811004
PR19 -19213.162296   5236.769745  15939.249374   -181.002424
PR20 -19543.500030  16000.845948  -3362.854451    -66.434223
PR21  -5232.962228  15259.964008 -19763.794398   -284.088113
PR22   9587.452453   5586.238046 -22989.657520   -169.618361
PR24  18833.600875 -16714.939980   4071.613878     83.675496
EOF
